STARLINK-37922          
1 69971U 26157AE  26198.91668981 -.02209221  00000+0 -91753-2 0  9993
2 69971  53.1580 281.7893 0000777  75.0007 234.0064 15.88270046  2590
CHUANG XIN 26 (CX-26)   
1 69972U 26158A   26194.51442212 -.00000212  00000+0 -21871-4 0  9997
2 69972  49.9860 287.5119 0004887 294.2352  65.8050 14.25122238   462
CZ-10B DEB              
1 69973U 26158B   26198.93339296  .00000075  00000+0  99845-4 0  9996
2 69973  49.9842 268.8757 0005784 320.0176  40.0311 14.24888186  1097
CZ-10B R/B              
1 69974U 26158C   26194.56253036  .00000143  00000+0  55130-4 0  9994
2 69974  49.9631 286.3519 0197944 194.8878 164.6170 14.64293949   480
STARLINK-38024          
1 69975U 26159A   26198.91668981 -.01646543  00000+0 -68948-2 0  9990
2 69975  97.2859  37.7289 0001297  93.5245 215.3990 15.88258986  2293
STARLINK-37993          
1 69976U 26159B   26198.91668981 -.01626960  00000+0 -67215-2 0  9998
2 69976  97.2858  37.7295 0001317  90.2139 220.9227 15.88493731  2293
STARLINK-37995          
1 69977U 26159C   26198.91668981 -.01611905  00000+0 -65759-2 0  9993
2 69977  97.2858  37.7306 0001331  97.6297 215.7666 15.88718499  2299
STARLINK-38057          
1 69978U 26159D   26198.91668981 -.01599256  00000+0 -64478-2 0  9995
2 69978  97.2859  37.7314 0001321  97.0199 218.7247 15.88931168  2292
STARLINK-38063          
1 69979U 26159E   26198.91668981 -.01556014  00000+0 -63382-2 0  9994
2 69979  97.2860  37.7326 0001343  95.2267 222.8869 15.89137435  2290
STARLINK-38093          
1 69980U 26159F   26198.91668981 -.01547780  00000+0 -62355-2 0  9995
2 69980  97.2862  37.7334 0001274  90.5650 229.9264 15.89338413  2296
STARLINK-38050          
1 69981U 26159G   26198.91668981 -.01766011  84283-3 -61265-2 0  9994
2 69981  97.2861  37.7343 0001300  99.3562 223.3764 15.89540214  2292
STARLINK-38065          
1 69982U 26159H   26198.91668981 -.01749895  83014-3 -60117-2 0  9992
2 69982  97.2861  37.7354 0001278  90.2825 234.7390 15.89733006  2295
STARLINK-38077          
1 69983U 26159J   26198.91668981 -.01732278  81619-3 -58944-2 0  9994
2 69983  97.2861  37.7363 0001219  89.3188 237.9472 15.89922276  2297
STARLINK-38068          
1 69984U 26159K   26198.91668981 -.01718873  80601-3 -57918-2 0  9990
2 69984  97.2861  37.7373 0001220  97.8159 231.5055 15.90115506  2292
STARLINK-38089          
1 69985U 26159L   26198.91668981 -.01704261  79475-3 -56899-2 0  9991
2 69985  97.2861  37.7382 0001223  85.6351 245.9525 15.90296707  2299
STARLINK-38073          
1 69986U 26159M   26198.91668981 -.01690928  78464-3 -55933-2 0  9991
2 69986  97.2862  37.7391 0001237  92.7933 240.9244 15.90478632  2293
STARLINK-38099          
1 69987U 26159N   26198.91668981 -.01680928  77745-3 -55085-2 0  9990
2 69987  97.2862  37.7398 0001277  92.0763 243.6789 15.90662463  2290
STARLINK-38064          
1 69988U 26159P   26198.91668981 -.01663327  76507-3 -53539-2 0  9992
2 69988  97.2862  37.7413 0001227  90.3654 249.5914 15.91014173  2299
STARLINK-38080          
1 69989U 26159Q   26198.91668981 -.01671777  77094-3 -54299-2 0  9997
2 69989  97.2862  37.7408 0001270  95.7154 242.1788 15.90837218  2296
STARLINK-38070          
1 69990U 26159R   26198.91668981 -.01653346  75783-3 -52761-2 0  9996
2 69990  97.2861  37.7422 0001238  96.7670 245.3175 15.91182446  2293
STARLINK-38042          
1 69991U 26159S   26198.91668981 -.01632114  74109-3 -51639-2 0  9991
2 69991  97.2860  37.7430 0001205  93.9414 250.0116 15.91348029  2290
STARLINK-38071          
1 69992U 26159T   26198.91668981 -.01623522  73511-3 -50923-2 0  9996
2 69992  97.2860  37.7438 0001223  86.4132 259.4473 15.91517186  2294
STARLINK-38082          
1 69993U 26159U   26198.91668981 -.01603736  71971-3 -49891-2 0  9992
2 69993  97.2861  37.7446 0001209  96.9678 250.8162 15.91674924  2294
STARLINK-38090          
1 69994U 26159V   26198.91668981 -.01601088  71869-3 -49387-2 0  9997
2 69994  97.2861  37.7455 0001211  87.5784 262.1488 15.91840609  2294
STARLINK-38084          
1 69995U 26159W   26198.91668981 -.01585205  70661-3 -48510-2 0  9996
2 69995  97.2862  37.7464 0001202  90.4111 261.3732 15.91993464  2294
STARLINK-38085          
1 69996U 26159X   26198.91668981 -.01572350  69711-3 -47731-2 0  9992
2 69996  97.2862  37.7473 0001238  91.1077 262.4796 15.92148398  2294
STARLINK-38091          
1 69997U 26159Y   26198.91668981 -.01564444  69169-3 -47116-2 0  9992
2 69997  97.2863  37.7480 0001267  80.0410 275.5420 15.92301343  2294
STARLINK-38086          
1 69998U 26159Z   26198.91668981 -.01550790  68156-3 -46342-2 0  9997
2 69998  97.2864  37.7489 0001246  89.1528 268.3108 15.92450700  2297
