OBJECT_NAME,OBJECT_ID,EPOCH,MEAN_MOTION,ECCENTRICITY,INCLINATION,RA_OF_ASC_NODE,ARG_OF_PERICENTER,MEAN_ANOMALY,EPHEMERIS_TYPE,CLASSIFICATION_TYPE,NORAD_CAT_ID,ELEMENT_SET_NO,REV_AT_EPOCH,BSTAR,MEAN_MOTION_DOT,MEAN_MOTION_DDOT
STARLINK-37922,2026-157AE,2026-07-17T22:00:01.999584,15.88270046,.00007775,53.1580,281.7893,75.0007,234.0064,0,U,69971,999,259,-.91752915E-2,-.2209221E-1,0
CHUANG XIN 26 (CX-26),2026-158A,2026-07-13T12:20:46.071168,14.25122238,.0004887,49.9860,287.5119,294.2352,65.8050,0,U,69972,999,46,-.21871415E-4,-.212E-5,0
CZ-10B DEB,2026-158B,2026-07-17T22:24:05.151744,14.24888186,.00057849,49.9842,268.8757,320.0176,40.0311,0,U,69973,999,109,.99845172E-4,.75E-6,0
CZ-10B R/B,2026-158C,2026-07-13T13:30:02.623104,14.64293949,.01979448,49.9631,286.3519,194.8878,164.6170,0,U,69974,999,48,.55130296E-4,.143E-5,0
STARLINK-38024,2026-159A,2026-07-17T22:00:01.999584,15.88258986,.00012978,97.2859,37.7289,93.5245,215.3990,0,U,69975,999,229,-.6894781E-2,-.1646543E-1,0
STARLINK-37993,2026-159B,2026-07-17T22:00:01.999584,15.88493731,.00013179,97.2858,37.7295,90.2139,220.9227,0,U,69976,999,229,-.67214939E-2,-.162696E-1,0
STARLINK-37995,2026-159C,2026-07-17T22:00:01.999584,15.88718499,.00013311,97.2858,37.7306,97.6297,215.7666,0,U,69977,999,229,-.65758776E-2,-.1611905E-1,0
STARLINK-38057,2026-159D,2026-07-17T22:00:01.999584,15.88931168,.00013212,97.2859,37.7314,97.0199,218.7247,0,U,69978,999,229,-.6447792E-2,-.1599256E-1,0
STARLINK-38063,2026-159E,2026-07-17T22:00:01.999584,15.89137435,.0001343,97.2860,37.7326,95.2267,222.8869,0,U,69979,999,229,-.6338218E-2,-.1556014E-1,0
STARLINK-38093,2026-159F,2026-07-17T22:00:01.999584,15.89338413,.0001274,97.2862,37.7334,90.5650,229.9264,0,U,69980,999,229,-.62355079E-2,-.154778E-1,0
STARLINK-38050,2026-159G,2026-07-17T22:00:01.999584,15.89540214,.00013005,97.2861,37.7343,99.3562,223.3764,0,U,69981,999,229,-.61264632E-2,-.1766011E-1,.84282688E-3
STARLINK-38065,2026-159H,2026-07-17T22:00:01.999584,15.89733006,.00012787,97.2861,37.7354,90.2825,234.7390,0,U,69982,999,229,-.60117031E-2,-.1749895E-1,.83014441E-3
STARLINK-38077,2026-159J,2026-07-17T22:00:01.999584,15.89922276,.00012197,97.2861,37.7363,89.3188,237.9472,0,U,69983,999,229,-.58943689E-2,-.1732278E-1,.81618659E-3
STARLINK-38068,2026-159K,2026-07-17T22:00:01.999584,15.90115506,.00012206,97.2861,37.7373,97.8159,231.5055,0,U,69984,999,229,-.57917817E-2,-.1718873E-1,.80601324E-3
STARLINK-38089,2026-159L,2026-07-17T22:00:01.999584,15.90296707,.0001223,97.2861,37.7382,85.6351,245.9525,0,U,69985,999,229,-.5689873E-2,-.1704261E-1,.79474614E-3
STARLINK-38073,2026-159M,2026-07-17T22:00:01.999584,15.90478632,.00012374,97.2862,37.7391,92.7933,240.9244,0,U,69986,999,229,-.55933167E-2,-.1690928E-1,.7846396E-3
STARLINK-38099,2026-159N,2026-07-17T22:00:01.999584,15.90662463,.00012772,97.2862,37.7398,92.0763,243.6789,0,U,69987,999,229,-.55084522E-2,-.1680928E-1,.77745364E-3
STARLINK-38064,2026-159P,2026-07-17T22:00:01.999584,15.91014173,.00012276,97.2862,37.7413,90.3654,249.5914,0,U,69988,999,229,-.53538995E-2,-.1663327E-1,.76506593E-3
STARLINK-38080,2026-159Q,2026-07-17T22:00:01.999584,15.90837218,.00012706,97.2862,37.7408,95.7154,242.1788,0,U,69989,999,229,-.54298887E-2,-.1671777E-1,.77094284E-3
STARLINK-38070,2026-159R,2026-07-17T22:00:01.999584,15.91182446,.00012384,97.2861,37.7422,96.7670,245.3175,0,U,69990,999,229,-.52761015E-2,-.1653346E-1,.75782974E-3
STARLINK-38042,2026-159S,2026-07-17T22:00:01.999584,15.91348029,.00012059,97.2860,37.7430,93.9414,250.0116,0,U,69991,999,229,-.51638842E-2,-.1632114E-1,.74108872E-3
STARLINK-38071,2026-159T,2026-07-17T22:00:01.999584,15.91517186,.00012233,97.2860,37.7438,86.4132,259.4473,0,U,69992,999,229,-.50922619E-2,-.1623522E-1,.73510691E-3
STARLINK-38082,2026-159U,2026-07-17T22:00:01.999584,15.91674924,.00012094,97.2861,37.7446,96.9678,250.8162,0,U,69993,999,229,-.49891358E-2,-.1603736E-1,.71970523E-3
STARLINK-38090,2026-159V,2026-07-17T22:00:01.999584,15.91840609,.0001211,97.2861,37.7455,87.5784,262.1488,0,U,69994,999,229,-.4938742E-2,-.1601088E-1,.71869496E-3
STARLINK-38084,2026-159W,2026-07-17T22:00:01.999584,15.91993464,.00012023,97.2862,37.7464,90.4111,261.3732,0,U,69995,999,229,-.48510293E-2,-.1585205E-1,.70661115E-3
STARLINK-38085,2026-159X,2026-07-17T22:00:01.999584,15.92148398,.0001238,97.2862,37.7473,91.1077,262.4796,0,U,69996,999,229,-.47730876E-2,-.157235E-1,.69710677E-3
STARLINK-38091,2026-159Y,2026-07-17T22:00:01.999584,15.92301343,.00012673,97.2863,37.7480,80.0410,275.5420,0,U,69997,999,229,-.47115715E-2,-.1564444E-1,.69168868E-3
STARLINK-38086,2026-159Z,2026-07-17T22:00:01.999584,15.92450700,.00012462,97.2864,37.7489,89.1528,268.3108,0,U,69998,999,229,-.46341874E-2,-.155079E-1,.68156369E-3
